{"fetched_at":"2026-07-20T18:29:43.707Z","source":"https://celestrak.org/NORAD/elements/gp.php?NAME=SENTINEL&FORMAT=JSON","constellation":"sentinel-6","records":[{"OBJECT_NAME":"SENTINEL-6A","OBJECT_ID":"2020-086A","EPOCH":"2026-07-20T00:48:16.707744","CLASSIFICATION_TYPE":"U","MEAN_MOTION":12.80930225,"ECCENTRICITY":0.00077857,"INCLINATION":66.0411,"RA_OF_ASC_NODE":66.8309,"ARG_OF_PERICENTER":269.6761,"MEAN_ANOMALY":90.3362,"EPHEMERIS_TYPE":0,"NORAD_CAT_ID":46984,"ELEMENT_SET_NO":999,"REV_AT_EPOCH":26453,"BSTAR":8.0617e-7,"MEAN_MOTION_DOT":-6.1e-7,"MEAN_MOTION_DDOT":0},{"OBJECT_NAME":"SENTINEL-6B","OBJECT_ID":"2025-264A","EPOCH":"2026-07-20T00:48:46.768032","CLASSIFICATION_TYPE":"U","MEAN_MOTION":12.80930268,"ECCENTRICITY":0.00078432,"INCLINATION":66.0411,"RA_OF_ASC_NODE":66.9563,"ARG_OF_PERICENTER":268.5919,"MEAN_ANOMALY":91.4198,"EPHEMERIS_TYPE":0,"NORAD_CAT_ID":66514,"ELEMENT_SET_NO":999,"REV_AT_EPOCH":3137,"BSTAR":0.000027005698,"MEAN_MOTION_DOT":-5.5e-7,"MEAN_MOTION_DDOT":0}]}
