SENTINEL-6A             
1 46984U 20086A   26201.03352671 -.00000061  00000+0  80617-6 0  9990
2 46984  66.0411  66.8309 0007785 269.6761  90.3362 12.80930225264532
SENTINEL-6B             
1 66514U 25264A   26201.03387463 -.00000055  00000+0  27006-4 0  9995
2 66514  66.0411  66.9563 0007843 268.5919  91.4198 12.80930268 31374
